324P/LaSagra,e,21.3992,270.5692,57.4816,3.096704,0.1808650,0.15289465,243.3518,01/08.0/2025,2000,g 13.0,4.0
# From MPEC 2024-LE0
325P/Yang-Gao,e,16.8495,256.8543,344.9369,3.547983,0.1474796,0.58797069,150.3728,01/08.0/2025,2000,g 14.0,4.0
# From MPEC 2024-LE0
326P/Hill,e,2.4732,99.7593,278.3433,4.069877,0.1200417,0.32047763,45.1059,01/08.0/2025,2000,g 13.5,4.0
# From MPEC 2024-M41
327P/VanNess,e,36.2368,173.9967,185.0451,3.562868,0.1465563,0.56265891,125.8805,01/08.0/2025,2000,g 16.0,4.0
# From MPEC 2024-YC7
328P/LONEOS-Tucker,e,17.6724,341.5928,30.6758,4.191075,0.1148725,0.55301070,18.8431,01/08.0/2025,2000,g 14.5,4.0
# From MPC101101
329P/LINEAR-Catalina,e,21.7195,87.6881,343.5890,5.183103,0.0835255,0.67890466,277.2676,01/08.0/2025,2000,g 13.5,4.0
# From MPEC 2023-J29
330P/Catalina,e,15.7378,293.0824,188.8245,6.615921,0.0579187,0.55039417,176.8398,01/08.0/2025,2000,g 12.0,4.0
# From MPEC 2024-Q20
331P/Gibbs,e,9.7402,216.7463,185.4359,3.003352,0.1893628,0.04150136,293.7572,01/08.0/2025,2000,g 12.0,4.0
# From MPEC 2016-K18
332P/Ikeya-Murakami,e,9.3847,3.7550,152.2903,3.086374,0.1817738,0.48970512,225.1581,01/08.0/2025,2000,g 18.0,4.0
# From MPEC 2016-K18
332P-A/Ikeya-Murakami,e,9.3849,152.3123,3.7337,3.086361,0.1817750,0.48971175,225.1571,01/08.0/2025,2000,g  9.0,4.0
# From MPEC 2016-EI8
332P-B/Ikeya-Murakami,e,9.3805,3.8028,152.3711,3.082329,0.1821317,0.48970701,359.9699,03/17.0/2016,2000,g 19.0,4.0
# From MPEC 2016-K18
332P-C/Ikeya-Murakami,e,9.3840,152.3036,3.7341,3.086327,0.1817779,0.48971730,225.1750,01/08.0/2025,2000,g 16.5,4.0
# From MPEC 2016-ED0
332P-D/Ikeya-Murakami,e,9.3761,3.7923,152.4393,3.081138,0.1822373,0.48977814,359.9486,03/17.0/2016,2000,g 19.0,4.0
# From MPEC 2016-ED0
332P-E/Ikeya-Murakami,e,9.3774,3.8228,152.2825,3.079877,0.1823493,0.48922008,359.9889,03/17.0/2016,2000,g 21.0,4.0
# From MPEC 2016-ED0
332P-F/Ikeya-Murakami,e,9.5293,3.4757,152.8203,3.163214,0.1751908,0.49918860,359.8501,03/17.0/2016,2000,g 21.0,4.0
# From MPEC 2016-ED0
332P-G/Ikeya-Murakami,e,9.2523,3.6955,154.4000,3.050519,0.1849880,0.49200362,359.9006,03/19.0/2016,2000,g 19.0,4.0
# From MPC100285
332P-H/Ikeya-Murakami,e,9.3845,152.3042,3.7338,3.086508,0.1817619,0.48975312,225.0898,01/08.0/2025,2000,g 19.0,4.0
# From MPEC 2016-ED0
332P-I/Ikeya-Murakami,e,9.3791,3.8048,152.3297,3.081767,0.1821815,0.48955490,359.9360,03/17.0/2016,2000,g 20.5,2.0
# From MPEC 2016-EI8
332P-J/Ikeya-Murakami,e,9.4296,3.6729,152.7712,3.115165,0.1792596,0.49429435,359.8613,03/17.0/2016,2000,g 20.5,2.0
# From MPEC 2025-AE4
333P/LINEAR,e,132.0224,115.7061,26.0171,4.220506,0.1136730,0.73630123,4.5131,01/08.0/2025,2000,g 15.0,4.0
# From MPEC 2023-J29
334P/NEAT,e,20.3680,90.4097,90.0416,6.826243,0.0552626,0.35163694,153.3748,01/08.0/2025,2000,g 10.5,4.0
# From MPEC 2023-M14
335P/Gibbs,e,7.2964,330.7985,162.3096,3.577331,0.1456684,0.54676016,128.1392,01/08.0/2025,2000,g 16.8,4.0
# From MPC105244
336P/McNaught,e,17.8432,298.1924,308.6253,5.037452,0.0871741,0.44489865,253.2858,01/08.0/2025,2000,g 13.5,4.0
# From MPEC 2024-A43
337P/WISE,e,16.2976,103.0971,164.6445,3.308511,0.1637779,0.49677900,150.3733,01/08.0/2025,2000,g 17.0,4.0
# From MPEC 2025-AE4
338P/McNaught,e,25.3807,9.7841,4.6091,3.895098,0.1282114,0.41261766,20.2167,01/08.0/2025,2000,g 12.0,4.0
# From MPC101101
339P/Gibbs,e,5.7337,27.4663,172.6776,3.698917,0.1385455,0.63569180,68.7285,01/08.0/2025,2000,g 17.0,4.0
# From MPC133426
340P/Boattini,e,2.0789,291.6596,36.0723,4.247607,0.1125868,0.28009969,333.7354,01/08.0/2025,2000,g 14.3,4.0
# From MPEC 2023-J29
341P/Gibbs,e,3.7964,29.9555,312.3582,4.285814,0.1110847,0.41518219,348.3691,01/08.0/2025,2000,g 12.5,4.0
# From MPC101101
342P/SOHO,e,11.6953,73.3234,27.6348,3.040964,0.1858605,0.98297231,0.0000,02/07.6211/2027,2000,g  9.0,4.0
# From MPEC 2024-PC5
343P/NEAT-LONEOS,e,5.5978,257.0533,137.6080,5.457551,0.0773050,0.58503224,223.8569,01/08.0/2025,2000,g 14.0,4.0
# From MPEC 2023-J29
344P/Read,e,3.4996,273.1014,140.6051,4.855821,0.0921107,0.42380870,274.5506,01/08.0/2025,2000,g 13.0,4.0
# From MPEC 2024-TP3
345P/LINEAR,e,2.7281,154.5118,196.7010,4.031426,0.1217632,0.22125288,15.8619,01/08.0/2025,2000,g 12.0,4.0
# From MPEC 2022-K19
346P/Catalina,e,22.2195,102.4585,336.0539,4.468929,0.1043275,0.50393503,300.5126,01/08.0/2025,2000,g 14.0,4.0
# From MPEC 2024-RQ6
347P/PANSTARRS,e,11.7660,260.9917,98.1722,3.601973,0.1441761,0.38685397,77.6507,01/08.0/2025,2000,g 15.0,4.0
# From MPEC 2022-ED3
348P/PANSTARRS,e,17.7410,312.9165,135.7539,3.151690,0.1761525,0.30749813,186.6682,01/08.0/2025,2000,g 14.0,4.0
# From MPEC 2024-LE0
349P/Lemmon,e,5.4888,331.7414,255.7677,3.578237,0.1456131,0.29855904,32.9080,01/08.0/2025,2000,g 14.0,4.0
# From MPC111775
350P/McNaught,e,7.3638,65.2918,140.0500,4.081174,0.1195436,0.09462845,308.1859,01/08.0/2025,2000,g 14.0,4.0
# From MPC105244
351P/Wiegert-PANSTARRS,e,12.7745,352.6705,283.2988,4.440511,0.1053306,0.29469614,351.8583,01/08.0/2025,2000,g 12.5,4.0
# From MPEC 2023-J29
352P/Skiff,e,21.0079,28.0331,309.3937,6.654528,0.0574154,0.61626206,158.4208,01/08.0/2025,2000,g 13.2,4.0
# From MPEC 2020-AA5
353P/McNaught,e,28.4181,121.5135,230.4957,4.170642,0.1157177,0.46979709,297.5760,01/08.0/2025,2000,g 14.5,4.0
# From MPEC 2024-EF7
354P/LINEAR,e,5.2506,320.0633,132.8907,2.290174,0.2843814,0.12449401,128.4991,01/08.0/2025,2000,g 15.5,4.0
# From MPEC 2023-CD7
355P/LINEAR-NEAT,e,11.0460,51.4277,336.2813,3.468284,0.1525921,0.50804424,42.9836,01/08.0/2025,2000,g 15.5,2.0
# From MPEC 2022-F14
356P/WISE,e,9.6411,160.7968,226.1965,4.153035,0.1164544,0.35597186,299.4163,01/08.0/2025,2000,g 14.0,4.0
# From MPC114609
357P/Hill,e,6.3134,44.5746,1.4892,4.455261,0.1048080,0.43611104,252.6290,01/08.0/2025,2000,g 15.5,4.0
# From MPEC 2024-EF7
358P/PANSTARRS,e,11.0667,85.6669,299.3988,3.146586,0.1765812,0.23952359,75.0897,01/08.0/2025,2000,g 18.0,4.0
# From MPC110086
359P/LONEOS,e,10.2622,149.7546,200.2994,4.641858,0.0985522,0.32327207,265.5496,01/08.0/2025,2000,g 13.5,4.0
# From MPEC 2025-A40
360P/WISE,e,24.1087,2.1767,354.2913,3.697440,0.1386284,0.49919478,13.3389,01/08.0/2025,2000,g 19.5,6.0
# From MPEC 2023-CD7
361P/Spacewatch,e,13.8995,203.2414,219.1060,4.933022,0.0899569,0.43961466,213.7993,01/08.0/2025,2000,g 12.0,4.0
# From MPC114609
363P/Lemmon,e,5.3900,146.6324,340.8776,3.574324,0.1458522,0.51854903,8.1384,01/08.0/2025,2000,g 17.5,4.0
# From MPEC 2024-M41
364P/PANSTARRS,e,11.9746,45.9966,212.5935,2.897658,0.1998175,0.71933057,120.9383,01/08.0/2025,2000,g 17.0,2.0
# From MPC111775
365P/PANSTARRS,e,9.8502,86.6574,67.4146,3.156282,0.1757682,0.58155762,80.2481,01/08.0/2025,2000,g 17.0,4.0
# From MPC114610
366P/Spacewatch,e,8.8570,70.7227,152.9990,3.499728,0.1505403,0.34852420,356.5525,01/08.0/2025,2000,g 15.0,4.0
# From MPC112395
367P/Catalina,e,8.4595,58.6615,172.6910,3.511229,0.1498012,0.28003183,359.4674,01/08.0/2025,2000,g 17.5,2.0
# From MPC114610
368P/NEAT,e,15.4829,257.8534,118.9863,5.534152,0.0757055,0.62593023,174.5970,01/08.0/2025,2000,g 14.0,4.0
# From MPC114610
369P/Hill,e,10.3210,47.2918,13.2237,4.378944,0.1075598,0.55596312,244.3976,01/08.0/2025,2000,g 15.0,4.0
# From MPEC 2021-F20
370P/NEAT,e,19.4216,55.0832,356.7729,6.439038,0.0603216,0.61536102,144.8436,01/08.0/2025,2000,g 13.0,4.0
# From MPC114610
371P/LINEAR-Skiff,e,17.3852,67.2829,308.5734,4.180388,0.1153132,0.47671858,263.3850,01/08.0/2025,2000,g 16.0,4.0
# From MPEC 2020-K19
372P/McNaught,e,9.5053,27.5516,326.0043,4.512004,0.1028371,0.15141862,233.2811,01/08.0/2025,2000,g 13.5,4.0
# From MPEC 2021-F20
373P/Rinner,e,13.7702,231.9380,221.1070,3.797601,0.1331803,0.39378847,279.4389,01/08.0/2025,2000,g 14.5,4.0
# From MPC114610
374P/Larson,e,10.7620,7.8809,51.5596,4.971029,0.0889272,0.46375117,194.3531,01/08.0/2025,2000,g 14.0,4.0
# From MPEC 2021-F20
375P/Hill,e,17.3712,359.8544,119.4240,5.545823,0.0754667,0.66013132,166.6197,01/08.0/2025,2000,g 16.0,4.0
# From MPEC 2024-RQ6
376P/LONEOS,e,1.1662,312.8528,285.3764,5.756163,0.0713681,0.51371023,138.6896,01/08.0/2025,2000,g 12.5,4.0
# From MPEC 2022-N37
377P/Scotti,e,9.0277,225.9812,354.8630,6.695487,0.0568893,0.25124676,93.5128,01/08.0/2025,2000,g  9.5,4.0
# From MPEC 2025-A40
378P/McNaught,e,19.1569,93.7950,193.3434,6.288594,0.0624991,0.46398256,97.0529,01/08.0/2025,2000,g 12.0,4.0
# From MPC115889
379P/Spacewatch,e,12.4364,30.4649,184.6002,3.484981,0.1514968,0.35020799,297.7921,01/08.0/2025,2000,g 15.0,4.0
# From MPEC 2023-C45
380P/PANSTARRS,e,8.0271,127.8136,87.8312,4.437095,0.1054523,0.33496374,222.0019,01/08.0/2025,2000,g 12.5,4.0
# From MPEC 2021-J28
381P/LINEAR-Spacewatch,e,28.3462,173.3106,173.8547,7.144900,0.0516071,0.68076039,99.6680,01/08.0/2025,2000,g 17.5,2.0
# From MPEC 2025-A40
382P/Larson,e,8.2596,170.8439,162.2037,5.904757,0.0686912,0.26752874,79.6163,01/08.0/2025,2000,g  8.0,4.0
# From MPEC 2022-OB6
383P/Christensen,e,12.3186,207.8544,133.7385,3.548550,0.1474442,0.59856695,280.2982,01/08.0/2025,2000,g 18.0,4.0
# From MPEC 2025-AE4
384P/Kowalski,e,7.2834,354.1920,37.7140,2.898334,0.1997476,0.61631916,22.1444,01/08.0/2025,2000,g 19.5,4.0
# From MPEC 2021-F20
385P/Hill,e,16.8240,357.0466,44.4469,4.288849,0.1109668,0.40200389,215.2387,01/08.0/2025,2000,g 13.0,4.0
# From MPEC 2021-L04
386P/PANSTARRS,e,15.2451,134.9155,353.0905,4.049494,0.1209492,0.41738635,193.7252,01/08.0/2025,2000,g 14.5,4.0
# From MPEC 2021-J28
387P/Boattini,e,8.9384,259.2380,162.8468,4.797239,0.0938031,0.73708579,182.7490,01/08.0/2025,2000,g 15.0,4.0
# From MPEC 2021-S45
388P/Gibbs,e,23.8835,37.0200,42.3489,5.240566,0.0821555,0.61939973,163.6976,01/08.0/2025,2000,g 13.0,4.0
# From MPEC 2022-OB6
389P/Siding Spring,e,160.0825,218.8658,249.3501,5.631052,0.0737598,0.70550866,135.3296,01/08.0/2025,2000,g 16.0,4.0
# From MPEC 2024-EF7
390P/Gibbs,e,18.5276,152.2149,232.5346,5.816871,0.0702538,0.70689882,123.1065,01/08.0/2025,2000,g 12.0,4.0
# From MPEC 2021-F20
391P/Kowalski,e,21.2576,124.7780,187.0459,4.690359,0.0970275,0.11847377,241.6207,01/08.0/2025,2000,g  8.0,4.0
# From MPEC 2021-J28
